[
  {
    "name": "STARLINK-3568",
    "noradId": "51856",
    "line1": "1 51856U 22022E   26176.48437011  .00144872  00000+0  86020-2 0  9996",
    "line2": "2 51856  53.1608 255.0522 0001804  22.1541 337.9528 15.10229681239320"
  },
  {
    "name": "STARLINK-3571",
    "noradId": "51857",
    "line1": "1 51857U 22022F   26176.47144300  .00197737  00000+0  11229-1 0  9998",
    "line2": "2 51857  53.1601 255.0898 0002451  49.3779 310.7427 15.11554182239294"
  },
  {
    "name": "STARLINK-3563",
    "noradId": "51858",
    "line1": "1 51858U 22022G   26176.54325875  .00108928  00000+0  65923-2 0  9990",
    "line2": "2 51858  53.1604 254.7889 0001397  61.8362 298.2771 15.09744195239305"
  },
  {
    "name": "STARLINK-3560",
    "noradId": "51859",
    "line1": "1 51859U 22022H   26176.49468163 -.00000084  00000+0  12808-4 0  9994",
    "line2": "2 51859  53.1593 245.0284 0001122  84.1616 275.9504 15.08830782239438"
  },
  {
    "name": "STARLINK-3559",
    "noradId": "51860",
    "line1": "1 51860U 22022J   26176.50108252 -.00000015  00000+0  17118-4 0  9991",
    "line2": "2 51860  53.1609 244.9907 0001136  92.2548 267.8574 15.08836987239392"
  },
  {
    "name": "STARLINK-3562",
    "noradId": "51861",
    "line1": "1 51861U 22022K   26176.48636120 -.00000229  00000+0  36961-5 0  9994",
    "line2": "2 51861  53.1585 245.0551 0001047  86.7926 273.3185 15.08833112239300"
  },
  {
    "name": "STARLINK-3508",
    "noradId": "51862",
    "line1": "1 51862U 22022L   26176.49740512 -.00000250  00000+0  23697-5 0  9993",
    "line2": "2 51862  53.1601 245.0076 0001158  89.1260 270.9865 15.08832510239447"
  },
  {
    "name": "STARLINK-3555",
    "noradId": "51863",
    "line1": "1 51863U 22022M   26176.47900112  .00000979  00000+0  79630-4 0  9990",
    "line2": "2 51863  53.1585 245.0879 0001232  72.0369 288.0757 15.08831809239387"
  },
  {
    "name": "STARLINK-3548",
    "noradId": "51864",
    "line1": "1 51864U 22022N   26176.48267253 -.00000437  00000+0 -93935-5 0  9990",
    "line2": "2 51864  53.1579 244.9936 0001128  83.6045 276.5074 15.08832586239439"
  },
  {
    "name": "STARLINK-3503",
    "noradId": "51865",
    "line1": "1 51865U 22022P   26176.47163495  .00000978  00000+0  79543-4 0  9999",
    "line2": "2 51865  53.1591 245.1211 0001162  92.7131 267.3993 15.08829094239380"
  },
  {
    "name": "STARLINK-3553",
    "noradId": "51866",
    "line1": "1 51866U 22022Q   26176.53514089 -.00000100  00000+0  11829-4 0  9997",
    "line2": "2 51866  53.1585 244.6912 0001081  90.0272 270.0843 15.08832350239398"
  },
  {
    "name": "STARLINK-3590",
    "noradId": "51867",
    "line1": "1 51867U 22022R   26176.46796127 -.00000434  00000+0 -92168-5 0  9992",
    "line2": "2 51867  53.1572 245.1391 0001008  72.8507 287.2594 15.08832193239387"
  },
  {
    "name": "STARLINK-3578",
    "noradId": "51868",
    "line1": "1 51868U 22022S   26176.47532115 -.00000351  00000+0 -39752-5 0  9997",
    "line2": "2 51868  53.1582 245.1046 0001108  83.7637 276.3481 15.08832379239382"
  },
  {
    "name": "STARLINK-3588",
    "noradId": "51869",
    "line1": "1 51869U 22022T   26176.45692331 -.00003801  00000+0 -22080-3 0  9990",
    "line2": "2 51869  53.1583 245.1880 0000856  74.8461 285.2625 15.08845825239384"
  },
  {
    "name": "STARLINK-3591",
    "noradId": "51870",
    "line1": "1 51870U 22022U   26176.46427867  .00000020  00000+0  19348-4 0  9995",
    "line2": "2 51870  53.1593 245.1542 0001126  83.3222 276.7897 15.08836646239436"
  },
  {
    "name": "STARLINK-3567",
    "noradId": "51871",
    "line1": "1 51871U 22022V   26176.45323948  .00000275  00000+0  35374-4 0  9999",
    "line2": "2 51871  53.1586 245.2050 0000871  83.5651 276.5440 15.08835791239496"
  },
  {
    "name": "STARLINK-3554",
    "noradId": "51872",
    "line1": "1 51872U 22022W   26176.46060008  .00000110  00000+0  24976-4 0  9990",
    "line2": "2 51872  53.1586 245.1737 0000867  72.7458 287.3629 15.08838169239387"
  },
  {
    "name": "STARLINK-3582",
    "noradId": "51873",
    "line1": "1 51873U 22022X   26176.52537206  .00022333  00000+0  95075-3 0  9995",
    "line2": "2 51873  53.1996 232.5980 0001590 255.6577 104.4244 15.22930360239576"
  },
  {
    "name": "STARLINK-3574",
    "noradId": "51874",
    "line1": "1 51874U 22022Y   26176.44956114  .00000391  00000+0  42677-4 0  9991",
    "line2": "2 51874  53.1594 245.2213 0001026  86.6147 273.4962 15.08835880239377"
  },
  {
    "name": "STARLINK-3585",
    "noradId": "51875",
    "line1": "1 51875U 22022Z   26176.49371507 -.00000530  00000+0 -15239-4 0  9995",
    "line2": "2 51875  53.1599 244.9362 0001199  88.7773 271.3356 15.08831075239391"
  },
  {
    "name": "STARLINK-3583",
    "noradId": "51876",
    "line1": "1 51876U 22022AA  26176.51212088  .00000197  00000+0  30487-4 0  9996",
    "line2": "2 51876  53.1587 244.9388 0001148  88.3379 271.7744 15.08835961239392"
  },
  {
    "name": "STARLINK-3556",
    "noradId": "51877",
    "line1": "1 51877U 22022AB  26176.58335648  .01242783  00000+0  41102-1 0  9995",
    "line2": "2 51877  53.1585 233.6703 0001144  94.6209 158.6876 15.28009478  5854"
  },
  {
    "name": "STARLINK-3575",
    "noradId": "51878",
    "line1": "1 51878U 22022AC  26176.43852489  .00000300  00000+0  36945-4 0  9995",
    "line2": "2 51878  53.1610 245.2718 0001377  94.6169 265.4980 15.08834938239387"
  },
  {
    "name": "STARLINK-3572",
    "noradId": "51879",
    "line1": "1 51879U 22022AD  26176.54962020  .00143551  00000+0  83110-2 0  9991",
    "line2": "2 51879  53.1593 234.7298 0001290 102.6917 257.4220 15.11153021239535"
  },
  {
    "name": "STARLINK-3566",
    "noradId": "51880",
    "line1": "1 51880U 22022AE  26176.50840828  .00001092  00000+0  86700-4 0  9993",
    "line2": "2 51880  53.1595 244.6767 0001214  88.4994 271.6137 15.08837784239392"
  },
  {
    "name": "STARLINK-3504",
    "noradId": "51881",
    "line1": "1 51881U 22022AF  26176.47383451  .00205954  00000+0  11384-1 0  9990",
    "line2": "2 51881  53.1594 235.0474 0001870  76.4694 283.6507 15.12485622239572"
  },
  {
    "name": "STARLINK-3570",
    "noradId": "51882",
    "line1": "1 51882U 22022AG  26176.58335648  .01294153  00000+0  48789-1 0  9997",
    "line2": "2 51882  53.1610 234.1283 0001136  54.6335 342.3681 15.23506476  5856"
  },
  {
    "name": "STARLINK-3576",
    "noradId": "51883",
    "line1": "1 51883U 22022AH  26176.55020974  .00224125  00000+0  12224-1 0  9994",
    "line2": "2 51883  53.1603 234.8774 0001691 132.5926 227.5210 15.12867053239523"
  },
  {
    "name": "STARLINK-3577",
    "noradId": "51884",
    "line1": "1 51884U 22022AJ  26175.88745562  .00001202  00000+0  93650-4 0  9991",
    "line2": "2 51884  53.1591 237.7488 0000895  79.6129 280.4963 15.08826419239513"
  },
  {
    "name": "STARLINK-3584",
    "noradId": "51885",
    "line1": "1 51885U 22022AK  26176.53056955  .00211276  00000+0  11878-1 0  9999",
    "line2": "2 51885  53.1590 234.8095 0001372  69.4839 290.6301 15.11844246239523"
  }
]