OBJECT_NAME,OBJECT_ID,EPOCH,MEAN_MOTION,ECCENTRICITY,INCLINATION,RA_OF_ASC_NODE,ARG_OF_PERICENTER,MEAN_ANOMALY,EPHEMERIS_TYPE,CLASSIFICATION_TYPE,NORAD_CAT_ID,ELEMENT_SET_NO,REV_AT_EPOCH,BSTAR,MEAN_MOTION_DOT,MEAN_MOTION_DDOT
STARLINK-3568,2022-022E,2026-06-25T11:37:29.577504,15.10229681,.0001804,53.1608,255.0522,22.1541,337.9528,0,U,51856,999,23932,.86019876E-2,.144872E-2,0
STARLINK-3571,2022-022F,2026-06-25T11:18:52.675200,15.11554182,.00024519,53.1601,255.0898,49.3779,310.7427,0,U,51857,999,23929,.11229313E-1,.197737E-2,0
STARLINK-3563,2022-022G,2026-06-25T13:02:17.556000,15.09744195,.00013973,53.1604,254.7889,61.8362,298.2771,0,U,51858,999,23930,.65922849E-2,.108928E-2,0
STARLINK-3560,2022-022H,2026-06-25T11:52:20.492832,15.08830782,.00011228,53.1593,245.0284,84.1616,275.9504,0,U,51859,999,23943,.12808101E-4,-.84E-6,0
STARLINK-3559,2022-022J,2026-06-25T12:01:33.529728,15.08836987,.00011363,53.1609,244.9907,92.2548,267.8574,0,U,51860,999,23939,.17118288E-4,-.15E-6,0
STARLINK-3562,2022-022K,2026-06-25T11:40:21.607680,15.08833112,.00010477,53.1585,245.0551,86.7926,273.3185,0,U,51861,999,23930,.3696091E-5,-.229E-5,0
STARLINK-3508,2022-022L,2026-06-25T11:56:15.802368,15.08832510,.00011582,53.1601,245.0076,89.1260,270.9865,0,U,51862,999,23944,.2369658E-5,-.25E-5,0
STARLINK-3555,2022-022M,2026-06-25T11:29:45.696768,15.08831809,.00012328,53.1585,245.0879,72.0369,288.0757,0,U,51863,999,23938,.796297E-4,.979E-5,0
STARLINK-3548,2022-022N,2026-06-25T11:35:02.906592,15.08832586,.00011285,53.1579,244.9936,83.6045,276.5074,0,U,51864,999,23943,-.9393465E-5,-.437E-5,0
STARLINK-3503,2022-022P,2026-06-25T11:19:09.259680,15.08829094,.0001162,53.1591,245.1211,92.7131,267.3993,0,U,51865,999,23938,.79542742E-4,.978E-5,0
STARLINK-3553,2022-022Q,2026-06-25T12:50:36.172896,15.08832350,.00010816,53.1585,244.6912,90.0272,270.0843,0,U,51866,999,23939,.11828683E-4,-.1E-5,0
STARLINK-3590,2022-022R,2026-06-25T11:13:51.853728,15.08832193,.0001008,53.1572,245.1391,72.8507,287.2594,0,U,51867,999,23938,-.9216788E-5,-.434E-5,0
STARLINK-3578,2022-022S,2026-06-25T11:24:27.747360,15.08832379,.00011085,53.1582,245.1046,83.7637,276.3481,0,U,51868,999,23938,-.397524E-5,-.351E-5,0
STARLINK-3588,2022-022T,2026-06-25T10:57:58.173984,15.08845825,.00008564,53.1583,245.1880,74.8461,285.2625,0,U,51869,999,23938,-.22080435E-3,-.3801E-4,0
STARLINK-3591,2022-022U,2026-06-25T11:08:33.677088,15.08836646,.0001126,53.1593,245.1542,83.3222,276.7897,0,U,51870,999,23943,.19348372E-4,.2E-6,0
STARLINK-3567,2022-022V,2026-06-25T10:52:39.891072,15.08835791,.00008716,53.1586,245.2050,83.5651,276.5440,0,U,51871,999,23949,.35373837E-4,.275E-5,0
STARLINK-3554,2022-022W,2026-06-25T11:03:15.846912,15.08838169,.00008677,53.1586,245.1737,72.7458,287.3629,0,U,51872,999,23938,.2497645E-4,.11E-5,0
STARLINK-3582,2022-022X,2026-06-25T12:36:32.145984,15.22930360,.00015906,53.1996,232.5980,255.6577,104.4244,0,U,51873,999,23957,.95074773E-3,.22333E-3,0
STARLINK-3574,2022-022Y,2026-06-25T10:47:22.082496,15.08835880,.00010269,53.1594,245.2213,86.6147,273.4962,0,U,51874,999,23937,.4267734E-4,.391E-5,0
STARLINK-3585,2022-022Z,2026-06-25T11:50:56.982048,15.08831075,.00011999,53.1599,244.9362,88.7773,271.3356,0,U,51875,999,23939,-.15238515E-4,-.53E-5,0
STARLINK-3583,2022-022AA,2026-06-25T12:17:27.244032,15.08835961,.00011489,53.1587,244.9388,88.3379,271.7744,0,U,51876,999,23939,.30486852E-4,.197E-5,0
STARLINK-3556,2022-022AB,2026-06-25T14:00:01.999872,15.28009478,.00011441,53.1585,233.6703,94.6209,158.6876,0,U,51877,999,585,.41101741E-1,.1242783E-1,0
STARLINK-3575,2022-022AC,2026-06-25T10:31:28.550496,15.08834938,.00013776,53.1610,245.2718,94.6169,265.4980,0,U,51878,999,23938,.36944733E-4,.3E-5,0
STARLINK-3572,2022-022AD,2026-06-25T13:11:27.185280,15.11153021,.00012909,53.1593,234.7298,102.6917,257.4220,0,U,51879,999,23953,.83109526E-2,.143551E-2,0
STARLINK-3566,2022-022AE,2026-06-25T12:12:06.475392,15.08837784,.0001214,53.1595,244.6767,88.4994,271.6137,0,U,51880,999,23939,.86699587E-4,.1092E-4,0
STARLINK-3504,2022-022AF,2026-06-25T11:22:19.301664,15.12485622,.000187,53.1594,235.0474,76.4694,283.6507,0,U,51881,999,23957,.11383521E-1,.205954E-2,0
STARLINK-3570,2022-022AG,2026-06-25T14:00:01.999872,15.23506476,.00011363,53.1610,234.1283,54.6335,342.3681,0,U,51882,999,585,.48789178E-1,.1294153E-1,0
STARLINK-3576,2022-022AH,2026-06-25T13:12:18.121536,15.12867053,.00016917,53.1603,234.8774,132.5926,227.5210,0,U,51883,999,23952,.12224168E-1,.224125E-2,0
STARLINK-3577,2022-022AJ,2026-06-24T21:17:56.165568,15.08826419,.00008956,53.1591,237.7488,79.6129,280.4963,0,U,51884,999,23951,.93650271E-4,.1202E-4,0
STARLINK-3584,2022-022AK,2026-06-25T12:44:01.209120,15.11844246,.00013722,53.1590,234.8095,69.4839,290.6301,0,U,51885,999,23952,.11878239E-1,.211276E-2,0
